NORAD_CAT_ID,OBJECT_NAME,OBJECT_TYPE,EPOCH,MEAN_MOTION,ECCENTRICITY,INCLINATION,RA_OF_ASC_NODE,ARG_OF_PERICENTER,MEAN_ANOMALY,BSTAR,MEAN_MOTION_DOT,MEAN_MOTION_DDOT,TLE_LINE0,TLE_LINE1,TLE_LINE2,SEMIMAJOR_AXIS,PERIOD,APOGEE,PERIGEE,DECAYED
53731.0,STARLINK-4636,PAYLOAD,2024-05-15 07:26:07,15.08861531,0.0001386,53.2171,352.3017,88.0999,272.0152,0.001007,0.00015784,0.0,0 STARLINK-4636,1 53731U 22107AH  24136.30981048  .00015784  00000-0  10070-2 0  9995,2 53731  53.2171 352.3017 0001386  88.0999 272.0152 15.08861531 93809,6917.815,95.436,540.638,538.721,0.0
53731.0,STARLINK-4636,PAYLOAD,2024-05-15 20:09:12,15.08847367,0.0001487,53.2185,349.9207,88.1804,271.9359,0.00029952,4.483e-05,0.0,0 STARLINK-4636,1 53731U 22107AH  24136.83973244  .00004483  00000-0  29952-3 0  9996,2 53731  53.2185 349.9207 0001487  88.1804 271.9359 15.08847367 93881,6917.858,95.437,540.752,538.694,0.0
53731.0,STARLINK-4636,PAYLOAD,2024-05-15 21:44:35,15.08853939,0.000137,53.2178,349.6233,88.6045,271.5104,0.00057178,8.827e-05,0.0,0 STARLINK-4636,1 53731U 22107AH  24136.90597082  .00008827  00000-0  57178-3 0  9993,2 53731  53.2178 349.6233 0001370  88.6045 271.5104 15.08853939 94520,6917.838,95.437,540.651,538.755,0.0
53731.0,STARLINK-4636,PAYLOAD,2024-05-15 23:19:58,15.08864431,0.0001351,53.2183,349.3254,87.199,272.9157,0.00085823,0.00013406,0.0,0 STARLINK-4636,1 53731U 22107AH  24136.97220884  .00013406  00000-0  85823-3 0  9990,2 53731  53.2183 349.3254 0001351  87.1990 272.9157 15.08864431 93901,6917.806,95.436,540.605,538.736,0.0
53731.0,STARLINK-4636,PAYLOAD,2024-05-16 07:16:54,15.08882962,0.0001573,53.2177,347.8409,69.0885,291.0276,0.0020516,0.00032553,0.0,0 STARLINK-4636,1 53731U 22107AH  24137.30340477  .00032553  00000-0  20516-2 0  9990,2 53731  53.2177 347.8409 0001573  69.0885 291.0276 15.08882962 93955,6917.749,95.435,540.702,538.526,0.0
53731.0,STARLINK-4636,PAYLOAD,2024-05-16 19:59:59,15.08836911,0.0001031,53.2166,345.463,84.1338,275.9772,0.00061032,9.438e-05,0.0,0 STARLINK-4636,1 53731U 22107AH  24137.83332716  .00009438  00000-0  61032-3 0  9990,2 53731  53.2166 345.4630 0001031  84.1338 275.9772 15.08836911 94038,6917.89,95.438,540.468,539.042,0.0
53731.0,STARLINK-4636,PAYLOAD,2024-05-17 19:50:47,15.08841901,6.77e-05,53.2185,340.9995,263.3646,96.7269,0.0010204,0.0001599,0.0,0 STARLINK-4636,1 53731U 22107AH  24138.82693546  .00015990  00000-0  10204-2 0  9995,2 53731  53.2185 340.9995 0000677 263.3646  96.7269 15.08841901 94182,6917.875,95.437,540.208,539.271,0.0
53731.0,STARLINK-4636,PAYLOAD,2024-05-17 23:01:33,15.08851581,0.0001109,53.216,340.405,103.5818,256.5298,0.0012427,0.00019551,0.0,0 STARLINK-4636,1 53731U 22107AH  24138.95941405  .00019551  00000-0  12427-2 0  9995,2 53731  53.2160 340.4050 0001109 103.5818 256.5298 15.08851581 94205,6917.845,95.437,540.477,538.943,0.0
53731.0,STARLINK-4636,PAYLOAD,2024-05-18 06:58:29,15.08846766,0.0001189,53.2158,338.9169,95.7609,264.3519,0.00075242,0.00011709,0.0,0 STARLINK-4636,1 53731U 22107AH  24139.29061394  .00011709  00000-0  75242-3 0  9995,2 53731  53.2158 338.9169 0001189  95.7609 264.3519 15.08846766 94250,6917.86,95.437,540.547,538.902,0.0
53731.0,STARLINK-4636,PAYLOAD,2024-05-18 19:41:34,15.08843875,0.00013,53.2147,336.5404,71.3287,288.7846,0.00059512,9.197e-05,0.0,0 STARLINK-4636,1 53731U 22107AH  24139.82053864  .00009197  00000-0  59512-3 0  9997,2 53731  53.2147 336.5404 0001300  71.3287 288.7846 15.08843875 94331,6917.869,95.437,540.633,538.834,0.0
53731.0,STARLINK-4636,PAYLOAD,2024-05-19 13:10:49,15.0884498,0.0001493,53.2163,333.2659,87.1891,272.9272,0.00037017,5.609e-05,0.0,0 STARLINK-4636,1 53731U 22107AH  24140.54917853  .00005609  00000-0  37017-3 0  9995,2 53731  53.2163 333.2659 0001493  87.1891 272.9272 15.08844980 95072,6917.865,95.437,540.763,538.697,0.0
53731.0,STARLINK-4636,PAYLOAD,2024-05-19 19:32:21,15.08842136,0.0001339,53.2169,332.0757,86.568,273.5465,0.00018265,2.62e-05,0.0,0 STARLINK-4636,1 53731U 22107AH  24140.81413843  .00002620  00000-0  18265-3 0  9999,2 53731  53.2169 332.0757 0001339  86.5680 273.5465 15.08842136 94488,6917.874,95.437,540.665,538.813,0.0
53731.0,STARLINK-4636,PAYLOAD,2024-05-21 01:44:40,15.08849109,0.0001338,53.2176,326.4262,89.6673,270.4472,0.00013352,1.838e-05,0.0,0 STARLINK-4636,1 53731U 22107AH  24142.07269303  .00001838  00000-0  13352-3 0  9991,2 53731  53.2176 326.4262 0001338  89.6673 270.4472 15.08849109 94671,6917.853,95.437,540.643,538.792,0.0
53731.0,STARLINK-4636,PAYLOAD,2024-05-21 19:13:56,15.08834404,0.000138,53.2188,323.1582,98.8787,261.2361,4.5146e-05,4.31e-06,0.0,0 STARLINK-4636,1 53731U 22107AH  24142.80134319  .00000431  00000-0  45146-4 0  9995,2 53731  53.2188 323.1582 0001380  98.8787 261.2361 15.08834404 94787,6917.897,95.438,540.717,538.808,0.0
53731.0,STARLINK-4636,PAYLOAD,2024-05-22 20:40:06,15.088343,0.0001352,53.2186,318.403,103.5646,256.5496,3.085e-05,2.03e-06,0.0,0 STARLINK-4636,1 53731U 22107AH  24143.86118756  .00000203  00000-0  30850-4 0  9992,2 53731  53.2186 318.4030 0001352 103.5646 256.5496 15.08834300 94946,6917.898,95.438,540.698,538.828,0.0
53731.0,STARLINK-4636,PAYLOAD,2024-05-23 10:58:34,15.08835941,0.0001356,53.2188,315.7238,89.9098,270.2049,0.00010773,1.427e-05,0.0,0 STARLINK-4636,1 53731U 22107AH  24144.45734630  .00001427  00000-0  10773-3 0  9993,2 53731  53.2188 315.7238 0001356  89.9098 270.2049 15.08835941 95669,6917.893,95.438,540.696,538.82,0.0
53731.0,STARLINK-4636,PAYLOAD,2024-05-23 18:55:30,15.08841639,0.0001317,53.2181,314.2385,86.8317,273.2825,0.00013383,1.843e-05,0.0,0 STARLINK-4636,1 53731U 22107AH  24144.78854241  .00001843  00000-0  13383-3 0  9992,2 53731  53.2181 314.2385 0001317  86.8317 273.2825 15.08841639 95088,6917.875,95.437,540.651,538.829,0.0
53731.0,STARLINK-4636,PAYLOAD,2024-05-24 10:49:21,15.08842098,0.0001507,53.2174,311.2665,73.193,286.9228,6.9813e-05,8.23e-06,0.0,0 STARLINK-4636,1 53731U 22107AH  24145.45094651  .00000823  00000-0  69813-4 0  9995,2 53731  53.2174 311.2665 0001507  73.1930 286.9228 15.08842098 95818,6917.874,95.437,540.781,538.696,0.0
53731.0,STARLINK-4636,PAYLOAD,2024-05-24 20:21:45,15.08768787,0.0001381,53.2173,309.4798,142.3456,217.7633,-0.00055742,-9.131e-05,0.0,0 STARLINK-4636,1 53731U 22107AH  24145.84844161 -.00009131  00000-0 -55742-3 0  9995,2 53731  53.2173 309.4798 0001381 142.3456 217.7633 15.08768787 95246,6918.098,95.442,540.918,539.008,0.0
53731.0,STARLINK-4636,PAYLOAD,2024-05-25 01:07:48,15.0886326,0.0001187,53.2171,308.5876,111.0313,249.0807,0.00024034,3.542e-05,0.0,0 STARLINK-4636,1 53731U 22107AH  24146.04708502  .00003542  00000-0  24034-3 0  9994,2 53731  53.2171 308.5876 0001187 111.0313 249.0807 15.08863260 95276,6917.809,95.436,540.495,538.853,0.0
53731.0,STARLINK-4636,PAYLOAD,2024-05-25 20:12:27,15.08839633,0.0001195,53.2173,305.0216,84.5115,275.6014,5.2453e-05,5.47e-06,0.0,0 STARLINK-4636,1 53731U 22107AH  24146.84198680  .00000547  00000-0  52453-4 0  9991,2 53731  53.2173 305.0216 0001195  84.5115 275.6014 15.08839633 95396,6917.882,95.438,540.573,538.92,0.0
53731.0,STARLINK-4636,PAYLOAD,2024-05-26 04:09:25,15.08773445,5.44e-05,53.2169,303.5365,191.2487,168.8493,0.00044312,6.759e-05,0.0,0 STARLINK-4636,1 53731U 22107AH  24147.17321466  .00006759  00000-0  44312-3 0  9993,2 53731  53.2169 303.5365 0000544 191.2487 168.8493 15.08773445 95442,6918.084,95.442,540.325,539.572,0.0
53731.0,STARLINK-4636,PAYLOAD,2024-05-26 13:41:41,15.08854627,0.0002021,53.2171,301.7499,107.612,252.5093,3.1562e-05,2.14e-06,0.0,0 STARLINK-4636,1 53731U 22107AH  24147.57061830  .00000214  00000-0  31562-4 0  9997,2 53731  53.2171 301.7499 0002021 107.6120 252.5093 15.08854627 95506,6917.836,95.437,541.099,538.303,0.0
53731.0,STARLINK-4636,PAYLOAD,2024-05-26 20:03:14,15.08834622,0.0002091,53.2177,300.5595,111.9267,248.1948,0.00018722,2.692e-05,0.0,0 STARLINK-4636,1 53731U 22107AH  24147.83558655  .00002692  00000-0  18722-3 0  9996,2 53731  53.2177 300.5595 0002091 111.9267 248.1948 15.08834622 95540,6917.897,95.438,541.208,538.315,0.0
53731.0,STARLINK-4636,PAYLOAD,2024-05-27 13:32:29,15.08836601,0.000103,53.2183,297.2904,84.5128,275.5981,5.8376e-05,6.41e-06,0.0,0 STARLINK-4636,1 53731U 22107AH  24148.56422882  .00000641  00000-0  58376-4 0  9991,2 53731  53.2183 297.2904 0001030  84.5128 275.5981 15.08836601 96288,6917.891,95.438,540.468,539.043,0.0
53731.0,STARLINK-4636,PAYLOAD,2024-05-27 16:43:15,15.08836042,0.000115,53.2186,296.6934,95.2571,264.8552,6.9343e-05,8.16e-06,0.0,0 STARLINK-4636,1 53731U 22107AH  24148.69670877  .00000816  00000-0  69343-4 0  9994,2 53731  53.2186 296.6934 0001150  95.2571 264.8552 15.08836042 96308,6917.892,95.438,540.553,538.962,0.0
53731.0,STARLINK-4636,PAYLOAD,2024-05-28 13:23:16,15.08838653,0.0001153,53.2184,292.827,107.2009,252.9109,-2.6797e-06,-3.3e-06,0.0,0 STARLINK-4636,1 53731U 22107AH  24149.55782965 -.00000330  00000-0 -26797-5 0  9992,2 53731  53.2184 292.8270 0001153 107.2009 252.9109 15.08838653 96430,6917.885,95.438,540.547,538.952,0.0
53731.0,STARLINK-4636,PAYLOAD,2024-05-28 14:58:39,15.08839201,0.0001161,53.2187,292.5297,107.0151,253.0969,-4.8137e-07,-2.95e-06,0.0,0 STARLINK-4636,1 53731U 22107AH  24149.62406918 -.00000295  00000-0 -48137-6 0  9994,2 53731  53.2187 292.5297 0001161 107.0151 253.0969 15.08839201 96441,6917.883,95.438,540.551,538.945,0.0
53731.0,STARLINK-4636,PAYLOAD,2024-05-29 13:14:03,15.08840047,0.0001052,53.2184,288.3677,97.2032,262.908,5.8228e-05,6.39e-06,0.0,0 STARLINK-4636,1 53731U 22107AH  24150.55142742  .00000639  00000-0  58228-4 0  9990,2 53731  53.2184 288.3677 0001052  97.2032 262.9080 15.08840047 95958,6917.88,95.438,540.473,539.017,0.0
53731.0,STARLINK-4636,PAYLOAD,2024-05-29 16:24:49,15.08841274,0.0001071,53.2184,287.773,98.4402,261.6712,6.7726e-05,7.9e-06,0.0,0 STARLINK-4636,1 53731U 22107AH  24150.68390628  .00000790  00000-0  67726-4 0  9993,2 53731  53.2184 287.7730 0001071  98.4402 261.6712 15.08841274 96600,6917.876,95.437,540.482,539.001,0.0
